[{"OBJECT_NAME":"STARLINK-35590","OBJECT_ID":"2025-236Y","EPOCH":"2026-03-09T11:35:14.734752","MEAN_MOTION":15.3021397,"ECCENTRICITY":0.00012865,"INCLINATION":53.159,"RA_OF_ASC_NODE":104.78,"ARG_OF_PERICENTER":78.7866,"MEAN_ANOMALY":281.3279,"EPHEMERIS_TYPE":0,"CLASSIFICATION_TYPE":"U","NORAD_CAT_ID":66108,"ELEMENT_SET_NO":999,"REV_AT_EPOCH":2285,"BSTAR":0.0016388711,"MEAN_MOTION_DOT":0.00048518,"MEAN_MOTION_DDOT":0},{"OBJECT_NAME":"CZ-6A DEB","OBJECT_ID":"2024-140RA","EPOCH":"2026-03-09T01:51:18.259488","MEAN_MOTION":15.31763252,"ECCENTRICITY":0.00411794,"INCLINATION":89.1856,"RA_OF_ASC_NODE":296.0787,"ARG_OF_PERICENTER":96.6516,"MEAN_ANOMALY":263.9425,"EPHEMERIS_TYPE":0,"CLASSIFICATION_TYPE":"U","NORAD_CAT_ID":61156,"ELEMENT_SET_NO":999,"REV_AT_EPOCH":8391,"BSTAR":0.0079173326,"MEAN_MOTION_DOT":0.00256788,"MEAN_MOTION_DDOT":0}]
